[
    {
        "Altitude(m)": 569581.6219806846,
        "Argument of Periapsis(deg)": 0.026491964442854003,
        "Eccentricity": 0.0,
        "Inclination(deg)": 53.0,
        "Latitude(deg)": -47.44424290656764,
        "Longitude(deg)": -17.897057315092532,
        "Mean Anomaly(deg)": -66.90632852968969,
        "RAAN(deg)": 139.96057347411207,
        "Satellite Name": "Starlink Shell 1 631",
        "Satellite Number": 631,
        "Semi-Major Axis(m)": 6931778.249405717,
        "Time(s)": 760
    },
    {
        "Altitude(m)": 569463.204292667,
        "Argument of Periapsis(deg)": 0.02684054292236524,
        "Eccentricity": 0.0,
        "Inclination(deg)": 53.0,
        "Latitude(deg)": -47.15269727511032,
        "Longitude(deg)": -17.125114383680344,
        "Mean Anomaly(deg)": -66.27949732613293,
        "RAAN(deg)": 139.96005470403458,
        "Satellite Name": "Starlink Shell 1 631",
        "Satellite Number": 631,
        "Semi-Major Axis(m)": 6931778.249405717,
        "Time(s)": 770
    },
    {
        "Altitude(m)": 569342.2514806935,
        "Argument of Periapsis(deg)": 0.027189121401876473,
        "Eccentricity": 0.0,
        "Inclination(deg)": 53.0,
        "Latitude(deg)": -46.855423747235115,
        "Longitude(deg)": -16.36208434147668,
        "Mean Anomaly(deg)": -65.65266612257624,
        "RAAN(deg)": 139.9595359339571,
        "Satellite Name": "Starlink Shell 1 631",
        "Satellite Number": 631,
        "Semi-Major Axis(m)": 6931778.249405717,
        "Time(s)": 780
    },
    {
        "Altitude(m)": 569218.8113708156,
        "Argument of Periapsis(deg)": 0.02753769988138771,
        "Eccentricity": 0.0,
        "Inclination(deg)": 53.0,
        "Latitude(deg)": -46.55254217694066,
        "Longitude(deg)": -15.607944926340197,
        "Mean Anomaly(deg)": -65.02583491901956,
        "RAAN(deg)": 139.95901716387962,
        "Satellite Name": "Starlink Shell 1 631",
        "Satellite Number": 631,
        "Semi-Major Axis(m)": 6931778.249405717,
        "Time(s)": 790
    },
    {
        "Altitude(m)": 569092.9327464878,
        "Argument of Periapsis(deg)": 0.02788627836089895,
        "Eccentricity": 0.0,
        "Inclination(deg)": 53.0,
        "Latitude(deg)": -46.244171384594765,
        "Longitude(deg)": -14.86266532116718,
        "Mean Anomaly(deg)": -64.39900371546275,
        "RAAN(deg)": 139.9584983938022,
        "Satellite Name": "Starlink Shell 1 631",
        "Satellite Number": 631,
        "Semi-Major Axis(m)": 6931778.249405717,
        "Time(s)": 800
    },
    {
        "Altitude(m)": 568964.665327207,
        "Argument of Periapsis(deg)": 0.02823485684041019,
        "Eccentricity": 0.0,
        "Inclination(deg)": 53.0,
        "Latitude(deg)": -45.93042904577075,
        "Longitude(deg)": -14.126206189368068,
        "Mean Anomaly(deg)": -63.772172511906106,
        "RAAN(deg)": 139.9579796237247,
        "Satellite Name": "Starlink Shell 1 631",
        "Satellite Number": 631,
        "Semi-Major Axis(m)": 6931778.249405717,
        "Time(s)": 810
    },
    {
        "Altitude(m)": 568834.0597467206,
        "Argument of Periapsis(deg)": 0.028583435319921423,
        "Eccentricity": 0.0,
        "Inclination(deg)": 53.0,
        "Latitude(deg)": -45.61143159001876,
        "Longitude(deg)": -13.398519702410125,
        "Mean Anomaly(deg)": -63.14534130834937,
        "RAAN(deg)": 139.95746085364723,
        "Satellite Name": "Starlink Shell 1 631",
        "Satellite Number": 631,
        "Semi-Major Axis(m)": 6931778.249405717,
        "Time(s)": 820
    },
    {
        "Altitude(m)": 568701.1675308332,
        "Argument of Periapsis(deg)": 0.028932013799432665,
        "Eccentricity": 0.0,
        "Inclination(deg)": 53.0,
        "Latitude(deg)": -45.28729410924535,
        "Longitude(deg)": -12.679551070254828,
        "Mean Anomaly(deg)": -62.51851010479268,
        "RAAN(deg)": 139.95694208356974,
        "Satellite Name": "Starlink Shell 1 631",
        "Satellite Number": 631,
        "Semi-Major Axis(m)": 6931778.249405717,
        "Time(s)": 830
    },
    {
        "Altitude(m)": 568566.0410747994,
        "Argument of Periapsis(deg)": 0.029280592278943897,
        "Eccentricity": 0.0,
        "Inclination(deg)": 53.0,
        "Latitude(deg)": -44.95813027533616,
        "Longitude(deg)": -11.969238547154976,
        "Mean Anomaly(deg)": -61.891678901235984,
        "RAAN(deg)": 139.95642331349228,
        "Satellite Name": "Starlink Shell 1 631",
        "Satellite Number": 631,
        "Semi-Major Axis(m)": 6931778.249405717,
        "Time(s)": 840
    },
    {
        "Altitude(m)": 568428.7336203108,
        "Argument of Periapsis(deg)": 0.029629170758455132,
        "Eccentricity": 0.0,
        "Inclination(deg)": 53.0,
        "Latitude(deg)": -44.624052266647055,
        "Longitude(deg)": -11.26751342415479,
        "Mean Anomaly(deg)": -61.264847697679244,
        "RAAN(deg)": 139.9559045434148,
        "Satellite Name": "Starlink Shell 1 631",
        "Satellite Number": 631,
        "Semi-Major Axis(m)": 6931778.249405717,
        "Time(s)": 850
    },
    {
        "Altitude(m)": 568289.2992321184,
        "Argument of Periapsis(deg)": 0.02997774923796637,
        "Eccentricity": 0.0,
        "Inclination(deg)": 53.0,
        "Latitude(deg)": -44.28517070297066,
        "Longitude(deg)": -10.574301687967846,
        "Mean Anomaly(deg)": -60.638016494122496,
        "RAAN(deg)": 139.95538577333735,
        "Satellite Name": "Starlink Shell 1 631",
        "Satellite Number": 631,
        "Semi-Major Axis(m)": 6931778.249405717,
        "Time(s)": 860
    },
    {
        "Altitude(m)": 568147.7927742675,
        "Argument of Periapsis(deg)": 0.030326327717477602,
        "Eccentricity": 0.0,
        "Inclination(deg)": 53.0,
        "Latitude(deg)": -43.9415945885655,
        "Longitude(deg)": -9.88952314273319,
        "Mean Anomaly(deg)": -60.01118529056579,
        "RAAN(deg)": 139.95486700325986,
        "Satellite Name": "Starlink Shell 1 631",
        "Satellite Number": 631,
        "Semi-Major Axis(m)": 6931778.249405717,
        "Time(s)": 870
    },
    {
        "Altitude(m)": 568004.2698859645,
        "Argument of Periapsis(deg)": 0.030674906196988847,
        "Eccentricity": 0.0,
        "Inclination(deg)": 53.0,
        "Latitude(deg)": -43.59343126284256,
        "Longitude(deg)": -9.213093036698531,
        "Mean Anomaly(deg)": -59.38435408700907,
        "RAAN(deg)": 139.9543482331824,
        "Satellite Name": "Starlink Shell 1 631",
        "Satellite Number": 631,
        "Semi-Major Axis(m)": 6931778.249405717,
        "Time(s)": 880
    },
    {
        "Altitude(m)": 567858.7869570778,
        "Argument of Periapsis(deg)": 0.031023484676500086,
        "Eccentricity": 0.0,
        "Inclination(deg)": 53.0,
        "Latitude(deg)": -43.24078635828608,
        "Longitude(deg)": -8.544921990729973,
        "Mean Anomaly(deg)": -58.75752288345241,
        "RAAN(deg)": 139.9538294631049,
        "Satellite Name": "Starlink Shell 1 631",
        "Satellite Number": 631,
        "Semi-Major Axis(m)": 6931778.249405717,
        "Time(s)": 890
    },
    {
        "Altitude(m)": 567711.4011033262,
        "Argument of Periapsis(deg)": 0.03137206315601132,
        "Eccentricity": 0.0,
        "Inclination(deg)": 53.0,
        "Latitude(deg)": -42.88376376519413,
        "Longitude(deg)": -7.884915909122246,
        "Mean Anomaly(deg)": -58.13069167989561,
        "RAAN(deg)": 139.95331069302745,
        "Satellite Name": "Starlink Shell 1 631",
        "Satellite Number": 631,
        "Semi-Major Axis(m)": 6931778.249405717,
        "Time(s)": 900
    },
    {
        "Altitude(m)": 567562.1701410883,
        "Argument of Periapsis(deg)": 0.03172064163552255,
        "Eccentricity": 0.0,
        "Inclination(deg)": 53.0,
        "Latitude(deg)": -42.52246560282956,
        "Longitude(deg)": -7.232977385249454,
        "Mean Anomaly(deg)": -57.50386047633895,
        "RAAN(deg)": 139.95279192294996,
        "Satellite Name": "Starlink Shell 1 631",
        "Satellite Number": 631,
        "Semi-Major Axis(m)": 6931778.249405717,
        "Time(s)": 910
    },
    {
        "Altitude(m)": 567411.1525619054,
        "Argument of Periapsis(deg)": 0.0320692201150338,
        "Eccentricity": 0.0,
        "Inclination(deg)": 53.0,
        "Latitude(deg)": -42.156992196566655,
        "Longitude(deg)": -6.589005576112561,
        "Mean Anomaly(deg)": -56.87702927278224,
        "RAAN(deg)": 139.95227315287252,
        "Satellite Name": "Starlink Shell 1 631",
        "Satellite Number": 631,
        "Semi-Major Axis(m)": 6931778.249405717,
        "Time(s)": 920
    },
    {
        "Altitude(m)": 567258.4075066925,
        "Argument of Periapsis(deg)": 0.032417798594545036,
        "Eccentricity": 0.0,
        "Inclination(deg)": 53.0,
        "Latitude(deg)": -41.78744206063815,
        "Longitude(deg)": -5.9528960586009525,
        "Mean Anomaly(deg)": -56.25019806922549,
        "RAAN(deg)": 139.95175438279503,
        "Satellite Name": "Starlink Shell 1 631",
        "Satellite Number": 631,
        "Semi-Major Axis(m)": 6931778.249405717,
        "Time(s)": 930
    },
    {
        "Altitude(m)": 567103.9947395938,
        "Argument of Periapsis(deg)": 0.03276637707405627,
        "Eccentricity": 0.0,
        "Inclination(deg)": 53.0,
        "Latitude(deg)": -41.413911886094176,
        "Longitude(deg)": -5.324542180392338,
        "Mean Anomaly(deg)": -55.623366865668814,
        "RAAN(deg)": 139.95123561271754,
        "Satellite Name": "Starlink Shell 1 631",
        "Satellite Number": 631,
        "Semi-Major Axis(m)": 6931778.249405717,
        "Time(s)": 940
    }
]